{
    "links": {
        "self": "http://www.neowsapp.com/rest/v1/neo/3432676?api_key=iIulBulltgU6a56xZRHN4H3l9WmuAYTsLGpBGhQ2"
    },
    "id": "3432676",
    "neo_reference_id": "3432676",
    "name": "(2008 UF1)",
    "designation": "2008 UF1",
    "nasa_jpl_url": "http://ssd.jpl.nasa.gov/sbdb.cgi?sstr=3432676",
    "absolute_magnitude_h": 26.0,
    "estimated_diameter": {
        "kilometers": {
            "estimated_diameter_min": 0.0167708462,
            "estimated_diameter_max": 0.0375007522
        },
        "meters": {
            "estimated_diameter_min": 16.7708462163,
            "estimated_diameter_max": 37.5007521798
        },
        "miles": {
            "estimated_diameter_min": 0.0104209175,
            "estimated_diameter_max": 0.0233018799
        },
        "feet": {
            "estimated_diameter_min": 55.0224631002,
            "estimated_diameter_max": 123.0339677816
        }
    },
    "is_potentially_hazardous_asteroid": false,
    "close_approach_data": [
        {
            "close_approach_date": "2008-10-19",
            "close_approach_date_full": "2008-Oct-19 17:29",
            "epoch_date_close_approach": 1224437340000,
            "relative_velocity": {
                "kilometers_per_second": "18.3863402719",
                "kilometers_per_hour": "66190.8249789134",
                "miles_per_hour": "41128.4045542587"
            },
            "miss_distance": {
                "astronomical": "0.0097647485",
                "lunar": "3.7984871665",
                "kilometers": "1460785.576685695",
                "miles": "907690.067204791"
            },
            "orbiting_body": "Earth"
        },
        {
            "close_approach_date": "2082-11-04",
            "close_approach_date_full": "2082-Nov-04 11:55",
            "epoch_date_close_approach": 3561018900000,
            "relative_velocity": {
                "kilometers_per_second": "26.3797702285",
                "kilometers_per_hour": "94967.1728225813",
                "miles_per_hour": "59008.90802412"
            },
            "miss_distance": {
                "astronomical": "0.2709207867",
                "lunar": "105.3881860263",
                "kilometers": "40529172.629044329",
                "miles": "25183660.0898525802"
            },
            "orbiting_body": "Earth"
        }
    ],
    "orbital_data": {
        "orbit_id": "10",
        "orbit_determination_date": "2017-04-06 09:02:30",
        "first_observation_date": "2008-10-22",
        "last_observation_date": "2008-10-30",
        "data_arc_in_days": 8,
        "observations_used": 39,
        "orbit_uncertainty": "8",
        "minimum_orbit_intersection": ".0095868",
        "jupiter_tisserand_invariant": "3.712",
        "epoch_osculation": "2454763.5",
        "eccentricity": ".6342411643553187",
        "semi_major_axis": "1.865526964968261",
        "inclination": "5.003451913599646",
        "ascending_node_longitude": "32.70859365938154",
        "orbital_period": "930.6807328853424",
        "perihelion_distance": ".6823329705705472",
        "perihelion_argument": "274.4671440802757",
        "aphelion_distance": "3.048720959365975",
        "perihelion_time": "2454712.415477320735",
        "mean_anomaly": "19.76019005735779",
        "mean_motion": ".3868136378883769",
        "equinox": "J2000",
        "orbit_class": {
            "orbit_class_type": "APO",
            "orbit_class_description": "Near-Earth asteroid orbits which cross the Earth’s orbit similar to that of 1862 Apollo",
            "orbit_class_range": "a (semi-major axis) > 1.0 AU; q (perihelion) < 1.017 AU"
        }
    },
    "is_sentry_object": false
}